47266,ONEWEB-0120,2020,109.72,148.0,+,87.89,Active,1,LEO,Russia,UK,Commercial,Communications,Soyuz,1 47266U 20100J   24327.37402752  .00000441  00000+0  11898-2 0  9993,2 47266  87.8867 104.5446 0001342 101.4859 258.6420 13.12440565189728,13.12440565,0.0001342,LEO
47267,ONEWEB-0121,2020,109.72,148.0,+,87.88,Active,1,LEO,Russia,UK,Commercial,Communications,Soyuz,1 47267U 20100K   24327.43877249  .00000166  00000+0  42560-3 0  9993,2 47267  87.8855 104.5124 0001554  90.9234 269.2073 13.12441428189645,13.12441428,0.0001554,LEO
47268,ONEWEB-0122,2020,109.72,148.0,+,87.89,Active,1,LEO,Russia,UK,Commercial,Communications,Soyuz,1 47268U 20100L   24327.35750180 -.00000230  00000+0 -67472-3 0  9992,2 47268  87.8861 104.5345 0001379  94.2385 265.8901 13.12445116189546,13.12445116,0.0001379,LEO
47269,ONEWEB-0123,2020,109.72,148.0,+,87.89,Active,1,LEO,Russia,UK,Commercial,Communications,Soyuz,1 47269U 20100M   24327.35279991 -.00000137  00000+0 -41653-3 0  9998,2 47269  87.8861 104.5544 0001581 102.4086 257.7220 13.12442254189682,13.12442254,0.0001581,LEO
47270,ONEWEB-0124,2020,109.72,148.0,+,87.89,Active,1,LEO,Russia,UK,Commercial,Communications,Soyuz,1 47270U 20100N   24327.34142913 -.00000420  00000+0 -12030-2 0  9993,2 47270  87.8861 104.5537 0001848  97.0926 263.0413 13.12442069189569,13.12442069,0.0001848,LEO
47271,ONEWEB-0125,2020,109.72,148.0,+,87.89,Active,1,LEO,Russia,UK,Commercial,Communications,Soyuz,1 47271U 20100P   24327.39497570  .00000165  00000+0  42298-3 0  9995,2 47271  87.8873 104.5048 0001696 102.4627 257.6691 13.12440861189633,13.12440861,0.0001696,LEO
47272,ONEWEB-0126,2020,109.72,148.0,+,87.89,Active,1,LEO,Russia,UK,Commercial,Communications,Soyuz,1 47272U 20100Q   24327.34385311 -.00000556  00000+0 -15809-2 0  9993,2 47272  87.8861 104.5146 0001385 101.1393 258.9891 13.12441558189697,13.12441558,0.0001385,LEO
47273,ONEWEB-0127,2020,109.72,148.0,+,87.89,Active,1,LEO,Russia,UK,Commercial,Communications,Soyuz,1 47273U 20100R   24327.38199815  .00000460  00000+0  12427-2 0  9995,2 47273  87.8875 104.5411 0001229  90.1841 269.9429 13.12441987189729,13.12441987,0.0001229,LEO
